SL-8 R/B                
1 19257U 88053B   26073.53281792  .00000313  00000+0  10991-3 0  9992
2 19257  74.0454 103.5385 0021498 282.1836 188.5763 14.38919116977294
COSMOS 1975             
1 19573U 88093A   26073.57052576  .00008667  00000+0  31405-3 0  9990
2 19573  82.5181 112.7853 0012580 147.0855 213.1171 15.28144906 20159
SL-14 R/B               
1 19574U 88093B   26073.38700359  .00000692  00000+0  76761-4 0  9994
2 19574  82.5313  37.6341 0021424  26.6669  88.5712 14.85663070  1712
SL-16 R/B               
1 19650U 88102B   26073.56682839  .00000192  00000+0  12111-3 0  9995
2 19650  70.9996 141.2356 0014259 353.8991   6.1956 14.16155125927583
INTERCOSMOS 24          
1 20261U 89080A   26073.56833136  .00000807  00000+0  24026-3 0  9990
2 20261  82.6019 101.2265 1186680 281.4854  65.5562 12.59566177667410
SL-14 R/B               
1 20262U 89080C   26073.59707730  .00000630  00000+0  18412-3 0  9990
2 20262  82.5972 170.0372 1230696 173.5371 188.3411 12.50500254660766
DELTA 1 R/B             
1 20323U 89089B   26073.58709952  .00000416  00000+0  11106-3 0  9999
2 20323  97.0702 280.2468 0070649 106.7878 254.1086 14.50667585896444
ARIANE 40 R/B           
1 20443U 90005H   26073.60841153  .00000319  00000+0  11508-3 0  9993
2 20443  98.3073 134.1231 0010151 183.4201 176.6920 14.39874248893514
DELTA 2 R/B(1)          
1 20453U 90008B   26073.50650067  .00085344  00000+0  97544-3 0  9993
2 20453  35.6034 143.2251 0083770 303.1324  56.1395 15.56650810926885
COSMOS 2058             
1 20465U 90010A   26073.41512026  .00004719  00000+0  27794-3 0  9998
2 20465  82.4666  42.7712 0008658 328.9200  31.1516 15.11367677942955
SL-14 R/B               
1 20466U 90010B   26073.61049077  .00000538  00000+0  62354-4 0  9999
2 20466  82.4987 262.7649 0018354 284.8906  75.0276 14.83573891929211
SL-14 R/B               
1 20511U 90018B   26073.49804053  .00000584  00000+0  70168-4 0  9990
2 20511  82.5211 218.5951 0017605  77.4954 282.8228 14.82150757923293
HST                     
1 20580U 90037B   26073.51012837  .00010115  00000+0  33490-3 0  9998
2 20580  28.4725   7.1142 0001767 174.4342 185.6273 15.29568851774051
SL-16 R/B               
1 20625U 90046B   26073.57492899 -.00000066  00000+0 -92581-5 0  9998
2 20625  70.9977 287.6543 0016186 293.1130  66.8286 14.15011248849084
COSMOS 2084             
1 20663U 90055A   26073.03885825  .00002680  00000+0  19798-3 0  9995
2 20663  62.7915 320.7451 0016403 191.1191 168.9550 15.05678754936974
SL-6 R/B(2)             
1 20666U 90055D   26073.62599090  .00002697  00000+0  20945-3 0  9993
2 20666  62.7822 237.0631 0025587 348.2392  11.8106 15.03622367938933
SL-8 R/B                
1 20775U 90078B   26073.54781919  .00021352  00000+0  62971-3 0  9997
2 20775  82.8997 246.9403 0361186 357.6587   2.2920 14.89236154810029
